[{"OBJECT_NAME":"STARLINK-34348","OBJECT_ID":"2025-112G","EPOCH":"2026-03-09T17:26:56.618016","MEAN_MOTION":15.05647912,"ECCENTRICITY":0.00019586,"INCLINATION":97.6022,"RA_OF_ASC_NODE":121.5489,"ARG_OF_PERICENTER":82.4342,"MEAN_ANOMALY":277.7107,"EPHEMERIS_TYPE":0,"CLASSIFICATION_TYPE":"U","NORAD_CAT_ID":64152,"ELEMENT_SET_NO":999,"REV_AT_EPOCH":4331,"BSTAR":0.00035209276,"MEAN_MOTION_DOT":5.023e-5,"MEAN_MOTION_DDOT":0},{"OBJECT_NAME":"DMSP 5D-2 F13 DEB","OBJECT_ID":"1995-015HF","EPOCH":"2026-03-08T15:33:20.356128","MEAN_MOTION":15.01113693,"ECCENTRICITY":0.00168904,"INCLINATION":98.8624,"RA_OF_ASC_NODE":112.9575,"ARG_OF_PERICENTER":188.2899,"MEAN_ANOMALY":171.8045,"EPHEMERIS_TYPE":0,"CLASSIFICATION_TYPE":"U","NORAD_CAT_ID":42289,"ELEMENT_SET_NO":999,"REV_AT_EPOCH":56056,"BSTAR":0.014483506,"MEAN_MOTION_DOT":0.00190863,"MEAN_MOTION_DDOT":0}]
